QIANFAN-81              
1 63167U 25046J   26009.18853071  .00000193  00000+0  27936-3 0  9992
2 63167  88.9789 317.0340 0016516  45.1853 315.0638 13.51013509 51197
QIANFAN-82              
1 63168U 25046K   26009.14906978  .00000210  00000+0  30691-3 0  9996
2 63168  88.9789 317.0821 0014762  52.6478 307.6015 13.50986521 51175
QIANFAN-83              
1 63169U 25046L   26009.17541123  .00000261  00000+0  32220-3 0  9993
2 63169  88.9789 316.8019 0015788  38.1228 322.1043 13.61987540 51338
QIANFAN-84              
1 63170U 25046M   26009.17666112  .00000212  00000+0  30898-3 0  9996
2 63170  88.9788 317.2117 0017674  48.9145 311.3530 13.50996337 51104
QIANFAN-85              
1 63171U 25046N   26009.17361764 -.00000132  00000+0 -22281-3 0  9992
2 63171  88.9785 317.0839 0015049  51.3212 308.9282 13.50985061 51173
QIANFAN-86              
1 63172U 25046P   26009.18195075  .00000215  00000+0  31492-3 0  9998
2 63172  88.9791 316.9457 0013039  55.6113 304.6269 13.50987168 51256
QIANFAN-87              
1 63173U 25046Q   26009.15332544  .00000218  00000+0  31826-3 0  9994
2 63173  88.9786 317.0593 0013627  51.4974 308.7397 13.50984887 51180
QIANFAN-88              
1 63174U 25046R   26009.16952678  .00000199  00000+0  28939-3 0  9991
2 63174  88.9789 317.0128 0014115  58.2653 301.9872 13.50991074 51213
